; Generated by Bambu Lab A1 G-code Generator
; Date: 2025-12-29 19:43:52
; Source file: level1_base.stl
;
; Model Dimensions:
; X: 200.00 mm
; Y: 110.00 mm
; Z: 21.60 mm
;
; Print Estimates:
; Filament: 259.29998779296875 g (86.93000030517578 m)
; Print time: 02:20:36
; Layers: 108
;
; Print Settings:
; Printer: Bambu Lab A1 Combo
; Nozzle diameter: 0.4 mm
; Layer height: 0.2 mm
; First layer height: 0.2 mm
; Perimeters: 3
; Infill: 20% (hexagonal pattern)
; Print speed: 60 mm/s
;
; Temperatures:
; Nozzle: 210°C
; Bed: 60°C
; First layer nozzle: 215°C
; First layer bed: 65°C
;


;
; ===== START G-CODE =====
;
G21 ; set units to millimeters
G90 ; use absolute coordinates
M83 ; use relative distances for extrusion
M104 S215 ; set hotend temp
M140 S65 ; set bed temp
M109 S215 ; wait for hotend temp
M190 S65 ; wait for bed temp
G28 ; home all axes
G29 ; auto bed leveling (si está disponible)
;
; Prime line
G1 Z2.0 F3000 ; move Z axis up
G1 X10 Y10 F5000 ; move to start position
G1 Z0.2 F3000 ; lower nozzle
G1 X200 Y10 E15 F1800 ; draw prime line
G1 X200 Y10.4 F5000 ; move to side
G1 X10 Y10.4 E15 F1800 ; draw second line
G92 E0 ; reset extruder
G1 Z2.0 F3000 ; move Z axis up
;


;
; ===== LAYER DATA =====
;
;
; LAYER 0
;
G1 Z0.200 F12000 ; move to layer 0
; Perimeter
G1 X28.00 Y73.00 F12000
G1 X228.00 Y73.00 E20.0000 F3600
G1 X228.00 Y183.00 E11.0000
G1 X28.00 Y183.00 E20.0000
G1 X28.00 Y73.00 E11.0000
; Infill
G1 X228.00 Y73.00 E13.3333
G1 X228.00 Y83.00 E13.3333
G1 X228.00 Y93.00 E13.3333
G1 X228.00 Y103.00 E13.3333
G1 X228.00 Y113.00 E13.3333
G1 X228.00 Y123.00 E13.3333
G1 X228.00 Y133.00 E13.3333
G1 X228.00 Y143.00 E13.3333
G1 X228.00 Y153.00 E13.3333
G1 X228.00 Y163.00 E13.3333
G1 X228.00 Y173.00 E13.3333
;
; LAYER 1
;
G1 Z0.400 F12000 ; move to layer 1
; Perimeter
G1 X28.00 Y73.00 F12000
G1 X228.00 Y73.00 E20.0000 F3600
G1 X228.00 Y183.00 E11.0000
G1 X28.00 Y183.00 E20.0000
G1 X28.00 Y73.00 E11.0000
; Infill
G1 X228.00 Y73.00 E13.3333
G1 X228.00 Y83.00 E13.3333
G1 X228.00 Y93.00 E13.3333
G1 X228.00 Y103.00 E13.3333
G1 X228.00 Y113.00 E13.3333
G1 X228.00 Y123.00 E13.3333
G1 X228.00 Y133.00 E13.3333
G1 X228.00 Y143.00 E13.3333
G1 X228.00 Y153.00 E13.3333
G1 X228.00 Y163.00 E13.3333
G1 X228.00 Y173.00 E13.3333
;
; LAYER 2
;
G1 Z0.600 F12000 ; move to layer 2
; Perimeter
G1 X28.00 Y73.00 F12000
G1 X228.00 Y73.00 E20.0000 F3600
G1 X228.00 Y183.00 E11.0000
G1 X28.00 Y183.00 E20.0000
G1 X28.00 Y73.00 E11.0000
; Infill
G1 X228.00 Y73.00 E13.3333
G1 X228.00 Y83.00 E13.3333
G1 X228.00 Y93.00 E13.3333
G1 X228.00 Y103.00 E13.3333
G1 X228.00 Y113.00 E13.3333
G1 X228.00 Y123.00 E13.3333
G1 X228.00 Y133.00 E13.3333
G1 X228.00 Y143.00 E13.3333
G1 X228.00 Y153.00 E13.3333
G1 X228.00 Y163.00 E13.3333
G1 X228.00 Y173.00 E13.3333
;
; LAYER 3
;
G1 Z0.800 F12000 ; move to layer 3
; Perimeter
G1 X28.00 Y73.00 F12000
G1 X228.00 Y73.00 E20.0000 F3600
G1 X228.00 Y183.00 E11.0000
G1 X28.00 Y183.00 E20.0000
G1 X28.00 Y73.00 E11.0000
; Infill
G1 X228.00 Y73.00 E13.3333
G1 X228.00 Y83.00 E13.3333
G1 X228.00 Y93.00 E13.3333
G1 X228.00 Y103.00 E13.3333
G1 X228.00 Y113.00 E13.3333
G1 X228.00 Y123.00 E13.3333
G1 X228.00 Y133.00 E13.3333
G1 X228.00 Y143.00 E13.3333
G1 X228.00 Y153.00 E13.3333
G1 X228.00 Y163.00 E13.3333
G1 X228.00 Y173.00 E13.3333
;
; LAYER 4
;
G1 Z1.000 F12000 ; move to layer 4
; Perimeter
G1 X28.00 Y73.00 F12000
G1 X228.00 Y73.00 E20.0000 F3600
G1 X228.00 Y183.00 E11.0000
G1 X28.00 Y183.00 E20.0000
G1 X28.00 Y73.00 E11.0000
; Infill
G1 X228.00 Y73.00 E13.3333
G1 X228.00 Y83.00 E13.3333
G1 X228.00 Y93.00 E13.3333
G1 X228.00 Y103.00 E13.3333
G1 X228.00 Y113.00 E13.3333
G1 X228.00 Y123.00 E13.3333
G1 X228.00 Y133.00 E13.3333
G1 X228.00 Y143.00 E13.3333
G1 X228.00 Y153.00 E13.3333
G1 X228.00 Y163.00 E13.3333
G1 X228.00 Y173.00 E13.3333
;
; ... 103 more layers ...
;
;
; LAYER 107 (FINAL)
;
G1 Z21.600 F12000


;
; ===== END G-CODE =====
;
G1 E-0.8 F1800 ; retract
G1 Z+5 F3000 ; raise Z
G28 X Y ; home X Y
M104 S0 ; turn off hotend
M140 S0 ; turn off bed
M84 ; disable motors
; Print complete!
;